EUTELSAT QUANTUM        
1 49056U 21069B   26004.11226318  .00000127  00000+0  00000+0 0  9996
2 49056   0.0171  41.0917 0003773 247.4372 263.2977  1.00271258 16285
EUTELSAT KONNECT VHTS   
1 53765U 22110A   26004.03308748  .00000018  00000+0  00000+0 0  9994
2 53765   0.0584  96.3311 0002656 166.1714 215.7538  1.00270008  5197
EUTELSAT HOTBIRD 13F    
1 54048U 22134A   26004.02753278  .00000089  00000+0  00000+0 0  9994
2 54048   0.0564 289.5068 0002318  59.4215 137.5998  1.00274782 11731
EUTELSAT HOTBIRD 13G    
1 54225U 22146A   26004.02753278  .00000000  00000+0  00000+0 0  9997
2 54225   0.0180 256.1926 0001632 291.2656 299.0884  1.00270572  5822
EUTELSAT 10B            
1 54259U 22157A   26004.10480979  .00000069  00000+0  00000+0 0  9995
2 54259   0.0613  94.1202 0000738 100.7074 316.5844  1.00268077 11387
EUTELSAT 36D            
1 59346U 24059A   26004.10992318  .00000000  00000+0  00000+0 0  9990
2 59346   0.0265  47.2944 0000434 266.3569 225.5301  1.00268680  6500
